{
  "norad_id": 50839,
  "name": "STARLINK-3320",
  "history": [
    {
      "epoch": "2026-03-28T07:07:29.200800Z",
      "apogee_km": 540.5122605814304,
      "perigee_km": 538.926687877537,
      "latitude_deg": 9.491335256494783e-06,
      "longitude_deg": 162.99849713085166,
      "height_km": 540.3883030003152,
      "semi_major_axis_km": 6917.856474229483,
      "eccentricity": 0.0001146,
      "inclination_deg": 53.2166,
      "raan_deg": 95.5895,
      "arg_perigee_deg": 73.3497,
      "mean_anomaly_deg": 286.7621,
      "mean_motion_rev_day": 15.08847824
    },
    {
      "epoch": "2026-03-29T05:22:53.200704Z",
      "apogee_km": 540.5508345885473,
      "perigee_km": 538.9029994035182,
      "latitude_deg": -7.572561859744529e-06,
      "longitude_deg": -175.9287641367782,
      "height_km": 540.354666843394,
      "semi_major_axis_km": 6917.8639169960325,
      "eccentricity": 0.0001191,
      "inclination_deg": 53.2157,
      "raan_deg": 91.4263,
      "arg_perigee_deg": 71.0101,
      "mean_anomaly_deg": 289.102,
      "mean_motion_rev_day": 15.08845389
    },
    {
      "epoch": "2026-03-30T00:27:30.923424Z",
      "apogee_km": 540.5773624930571,
      "perigee_km": 538.89770255656,
      "latitude_deg": 1.0316196227781709e-06,
      "longitude_deg": -106.43860583672608,
      "height_km": 540.3857523273363,
      "semi_major_axis_km": 6917.874532524808,
      "eccentricity": 0.0001214,
      "inclination_deg": 53.2169,
      "raan_deg": 87.8571,
      "arg_perigee_deg": 72.8451,
      "mean_anomaly_deg": 287.2674,
      "mean_motion_rev_day": 15.08841916
    },
    {
      "epoch": "2026-03-30T06:49:03.345600Z",
      "apogee_km": 540.5849767190039,
      "perigee_km": 538.8831804336733,
      "latitude_deg": 3.111021983551772e-05,
      "longitude_deg": 156.72596933073714,
      "height_km": 540.3765922411375,
      "semi_major_axis_km": 6917.871078576338,
      "eccentricity": 0.000123,
      "inclination_deg": 53.2169,
      "raan_deg": 86.6679,
      "arg_perigee_deg": 72.6746,
      "mean_anomaly_deg": 287.4381,
      "mean_motion_rev_day": 15.08843046
    },
    {
      "epoch": "2026-03-30T06:49:03.346464Z",
      "apogee_km": 540.5851150764247,
      "perigee_km": 538.8830420762515,
      "latitude_deg": 2.934801880234366e-05,
      "longitude_deg": 156.72596441062262,
      "height_km": 540.376551039113,
      "semi_major_axis_km": 6917.871078576338,
      "eccentricity": 0.00012302,
      "inclination_deg": 53.2169,
      "raan_deg": 86.6679,
      "arg_perigee_deg": 72.6746,
      "mean_anomaly_deg": 287.4381,
      "mean_motion_rev_day": 15.08843046
    },
    {
      "epoch": "2026-03-30T16:21:22.442400Z",
      "apogee_km": 540.5983883359477,
      "perigee_km": 538.8974187958593,
      "latitude_deg": -2.5274333324298927e-05,
      "longitude_deg": 11.470419923273399,
      "height_km": 540.3679488810143,
      "semi_major_axis_km": 6917.884903565903,
      "eccentricity": 0.00012294,
      "inclination_deg": 53.2168,
      "raan_deg": 84.8837,
      "arg_perigee_deg": 71.0723,
      "mean_anomaly_deg": 289.0402,
      "mean_motion_rev_day": 15.08838523
    },
    {
      "epoch": "2026-03-31T16:12:09.615456Z",
      "apogee_km": 540.6261124073626,
      "perigee_km": 538.8717365369166,
      "latitude_deg": 5.060821815352376e-06,
      "longitude_deg": 8.334251027775535,
      "height_km": 540.3868676147258,
      "semi_major_axis_km": 6917.885924472139,
      "eccentricity": 0.0001268,
      "inclination_deg": 53.2169,
      "raan_deg": 80.4234,
      "arg_perigee_deg": 72.9008,
      "mean_anomaly_deg": 287.2123,
      "mean_motion_rev_day": 15.08838189
    }
  ]
}